[{"OBJECT_NAME":"STARLINK-5169","OBJECT_ID":"2022-136K","EPOCH":"2026-03-09T21:58:33.961440","MEAN_MOTION":15.08832508,"ECCENTRICITY":0.00014574,"INCLINATION":53.2191,"RA_OF_ASC_NODE":312.7664,"ARG_OF_PERICENTER":91.4758,"MEAN_ANOMALY":268.6401,"EPHEMERIS_TYPE":0,"CLASSIFICATION_TYPE":"U","NORAD_CAT_ID":54060,"ELEMENT_SET_NO":999,"REV_AT_EPOCH":18730,"BSTAR":6.7009844e-5,"MEAN_MOTION_DOT":7.78e-6,"MEAN_MOTION_DDOT":0},{"OBJECT_NAME":"LEMUR-2-LANGER2SPACE","OBJECT_ID":"2025-061H","EPOCH":"2026-03-09T22:29:21.653952","MEAN_MOTION":15.13463796,"ECCENTRICITY":0.00153346,"INCLINATION":97.5541,"RA_OF_ASC_NODE":45.3892,"ARG_OF_PERICENTER":237.418,"MEAN_ANOMALY":122.5571,"EPHEMERIS_TYPE":0,"CLASSIFICATION_TYPE":"U","NORAD_CAT_ID":63358,"ELEMENT_SET_NO":999,"REV_AT_EPOCH":5260,"BSTAR":0.00035148431,"MEAN_MOTION_DOT":6.238e-5,"MEAN_MOTION_DDOT":0}]
